{
    "links": {
        "self": "http://www.neowsapp.com/rest/v1/neo/3607820?api_key=iIulBulltgU6a56xZRHN4H3l9WmuAYTsLGpBGhQ2"
    },
    "id": "3607820",
    "neo_reference_id": "3607820",
    "name": "(2012 QJ14)",
    "designation": "2012 QJ14",
    "nasa_jpl_url": "http://ssd.jpl.nasa.gov/sbdb.cgi?sstr=3607820",
    "absolute_magnitude_h": 23.2,
    "estimated_diameter": {
        "kilometers": {
            "estimated_diameter_min": 0.0608912622,
            "estimated_diameter_max": 0.1361570015
        },
        "meters": {
            "estimated_diameter_min": 60.8912622106,
            "estimated_diameter_max": 136.1570015386
        },
        "miles": {
            "estimated_diameter_min": 0.0378360645,
            "estimated_diameter_max": 0.0846040122
        },
        "feet": {
            "estimated_diameter_min": 199.7744887109,
            "estimated_diameter_max": 446.7093369279
        }
    },
    "is_potentially_hazardous_asteroid": false,
    "close_approach_data": [
        {
            "close_approach_date": "2012-08-10",
            "close_approach_date_full": "2012-Aug-10 21:59",
            "epoch_date_close_approach": 1344635940000,
            "relative_velocity": {
                "kilometers_per_second": "10.126319296",
                "kilometers_per_hour": "36454.7494655636",
                "miles_per_hour": "22651.5636331998"
            },
            "miss_distance": {
                "astronomical": "0.1738489573",
                "lunar": "67.6272443897",
                "kilometers": "26007433.713800951",
                "miles": "16160269.9480810838"
            },
            "orbiting_body": "Earth"
        }
    ],
    "orbital_data": {
        "orbit_id": "6",
        "orbit_determination_date": "2017-04-06 08:49:12",
        "first_observation_date": "2012-08-21",
        "last_observation_date": "2012-08-23",
        "data_arc_in_days": 2,
        "observations_used": 20,
        "orbit_uncertainty": "9",
        "minimum_orbit_intersection": ".171589",
        "jupiter_tisserand_invariant": "3.235",
        "epoch_osculation": "2456161.5",
        "eccentricity": ".5246404979784802",
        "semi_major_axis": "2.469983022295689",
        "inclination": "15.91015007052227",
        "ascending_node_longitude": "145.6388426796391",
        "orbital_period": "1417.879681461008",
        "perihelion_distance": "1.174129899480087",
        "perihelion_argument": "162.1165788040366",
        "aphelion_distance": "3.765836145111291",
        "perihelion_time": "2456140.935233914826",
        "mean_anomaly": "5.221399169098844",
        "mean_motion": ".2539002460554691",
        "equinox": "J2000",
        "orbit_class": {
            "orbit_class_type": "AMO",
            "orbit_class_description": "Near-Earth asteroid orbits similar to that of 1221 Amor",
            "orbit_class_range": "1.017 AU < q (perihelion) < 1.3 AU"
        }
    },
    "is_sentry_object": false
}